OBJECT_NAME,OBJECT_ID,EPOCH,MEAN_MOTION,ECCENTRICITY,INCLINATION,RA_OF_ASC_NODE,ARG_OF_PERICENTER,MEAN_ANOMALY,EPHEMERIS_TYPE,CLASSIFICATION_TYPE,NORAD_CAT_ID,ELEMENT_SET_NO,REV_AT_EPOCH,BSTAR,MEAN_MOTION_DOT,MEAN_MOTION_DDOT
STARLINK-35764,2025-299H,2026-06-25T16:21:03.167424,15.27604685,.0001729,43.0022,278.9860,274.3434,85.7220,0,U,67109,999,3072,.54267E-3,.14712E-3,0
STARLINK-35781,2025-299J,2026-06-25T17:05:27.458304,15.27611659,.0001693,43.0022,279.2201,267.2046,92.8612,0,U,67110,999,2963,.9388E-3,.25687E-3,0
STARLINK-35875,2025-299K,2026-06-24T01:03:27.154656,15.27586795,.0001839,43.0027,288.1923,273.5424,86.5217,0,U,67111,999,2938,.55178541E-3,.14956E-3,0
STARLINK-35906,2025-299L,2026-06-25T15:29:27.229056,15.27619218,.0001755,43.0002,279.5744,273.0039,87.0612,0,U,67112,999,2962,.1449E-2,.39877E-3,0
STARLINK-35789,2025-299M,2026-06-25T16:54:21.302208,15.27664985,.0001674,43.0000,279.1596,327.7610,32.3139,0,U,67113,999,2963,.14771E-2,.40715E-3,0
STARLINK-36180,2025-299N,2026-06-25T18:26:39.596640,15.27609620,.0001515,42.9976,278.7761,260.9627,99.1053,0,U,67114,999,2964,.81452E-3,.2224E-3,0
STARLINK-35892,2025-299P,2026-06-25T16:09:57.152160,15.27613479,.000163,43.0044,278.9278,265.8215,94.2450,0,U,67115,999,2963,.69746E-3,.18999E-3,0
STARLINK-35738,2025-299Q,2026-06-25T15:55:09.056064,15.27647990,.0000856,43.0011,278.8500,274.4734,85.6020,0,U,67116,999,2963,.11143E-2,.30592E-3,0
STARLINK-35674,2025-299R,2026-06-25T16:32:09.244032,15.27613414,.000188,43.0006,279.0428,275.8938,84.1699,0,U,67117,999,2963,.72321E-3,.19713E-3,0
STARLINK-35701,2025-299S,2026-06-25T16:11:47.889312,15.27616160,.0001541,43.0046,278.9331,267.7916,92.2760,0,U,67118,999,2963,.79228E-3,.21628E-3,0
STARLINK-36179,2025-299T,2026-06-25T14:52:26.851008,15.27609139,.0001754,43.0020,279.3790,266.5641,93.5010,0,U,67119,999,2962,.73304E-3,.19982E-3,0
STARLINK-36217,2025-299U,2026-06-25T17:09:09.537408,15.27600048,.0001394,42.9995,279.2337,271.8623,88.2069,0,U,67120,999,2963,.43705E-3,.11791E-3,0
STARLINK-36124,2025-299V,2026-06-25T16:48:48.308832,15.27602963,.0001525,42.9998,279.1256,265.8889,94.1789,0,U,67121,999,2963,.60335E-3,.16389E-3,0
STARLINK-36188,2025-299W,2026-06-25T15:25:45.033312,15.27641282,.0002074,43.0020,279.5579,268.5945,91.4669,0,U,67122,999,2962,.11155E-2,.30621E-3,0
STARLINK-36151,2025-299X,2026-06-25T17:49:39.026784,15.27597661,.0002331,43.0025,278.5854,257.1079,102.9512,0,U,67123,999,2964,.44513E-3,.12014E-3,0
STARLINK-36195,2025-299Y,2026-06-25T15:44:02.684832,15.27622109,.0001618,43.0034,278.7903,279.0337,81.0331,0,U,67124,999,2963,.69496E-3,.18935E-3,0
STARLINK-36219,2025-299Z,2026-06-25T16:34:00.173856,15.27617292,.0001744,43.0015,279.0456,266.2906,93.7746,0,U,67125,999,2963,.88017E-3,.24065E-3,0
STARLINK-36223,2025-299AA,2026-06-25T16:22:54.073056,15.27597071,.000156,43.0025,278.9871,269.6513,90.4160,0,U,67126,999,2963,.38159E-3,.10258E-3,0
STARLINK-36164,2025-299AB,2026-06-25T16:02:32.798688,15.27618464,.0001353,43.0036,278.8844,268.8905,91.1792,0,U,67127,999,2963,.73053E-3,.19918E-3,0
STARLINK-35685,2025-299AC,2026-06-25T16:06:14.839776,15.27624847,.000184,43.0040,278.9090,273.6317,86.4325,0,U,67128,999,2963,.73466E-3,.20037E-3,0
STARLINK-36214,2025-299AD,2026-06-25T17:12:52.000128,15.27619743,.0001291,42.9986,279.2523,277.5821,82.4884,0,U,67129,999,2963,.7458E-3,.20342E-3,0
STARLINK-36194,2025-299AE,2026-06-25T16:28:27.475968,15.27597137,.0001687,43.0018,279.0197,281.8405,78.2257,0,U,67130,999,2963,.58938E-3,.16E-3,0
ZIYUAN 3-04 (ZY 3-04),2025-300A,2026-06-26T04:11:47.306976,15.21159687,.0005279,97.4736,255.0115,290.0900,69.9767,0,U,67131,999,2920,.21568E-3,.4736E-4,0
KUIPER-00144,2025-301A,2026-06-25T18:01:51.481056,14.79930465,.0000693,51.9002,297.7681,106.0746,254.0292,0,U,67133,999,2987,.20908E-3,.1373E-4,0
KUIPER-00164,2025-301B,2026-06-25T18:02:58.676928,14.76597607,.0000739,51.9036,309.7178,235.8935,124.1956,0,U,67134,999,2988,.35955E-3,.2319E-4,0
KUIPER-00175,2025-301C,2026-06-25T12:53:16.279872,14.92307010,.0000905,51.8937,294.5142,73.4798,286.6269,0,U,67135,999,2997,.49503E-3,.4866E-4,0
KUIPER-00179,2025-301D,2026-06-25T17:46:19.593120,14.79931550,.0000605,51.8989,307.7910,117.1789,242.9235,0,U,67136,999,2991,.18379E-3,.118E-4,0
KUIPER-00181,2025-301E,2026-06-25T19:03:50.929344,14.79942594,.0000707,51.8993,320.0833,63.2214,296.8821,0,U,67137,999,2972,.19612E-2,.14766E-3,0
KUIPER-00183,2025-301F,2026-06-25T18:32:04.725888,14.92752285,.0009768,51.8946,294.2120,64.7374,295.4605,0,U,67138,999,3009,.55986E-3,.5602E-4,0
KUIPER-00184,2025-301G,2026-06-25T18:42:43.551936,14.79935255,.0000353,51.8995,302.6205,117.3022,242.7976,0,U,67139,999,3008,.18457E-3,.1186E-4,0
