STARLINK-35764          
1 67109U 25299H   26176.68128666  .00014712  00000+0  54267-3 0  9996
2 67109  43.0022 278.9860 0001729 274.3434  85.7220 15.27604685 30722
STARLINK-35781          
1 67110U 25299J   26176.71212336  .00025687  00000+0  93880-3 0  9997
2 67110  43.0022 279.2201 0001693 267.2046  92.8612 15.27611659 29638
STARLINK-35875          
1 67111U 25299K   26175.04406429  .00014956  00000+0  55179-3 0  9997
2 67111  43.0027 288.1923 0001839 273.5424  86.5217 15.27586795 29381
STARLINK-35906          
1 67112U 25299L   26176.64545404  .00039877  00000+0  14490-2 0  9991
2 67112  43.0002 279.5744 0001755 273.0039  87.0612 15.27619218 29623
STARLINK-35789          
1 67113U 25299M   26176.70441322  .00040715  00000+0  14771-2 0  9998
2 67113  43.0000 279.1596 0001674 327.7610  32.3139 15.27664985 29634
STARLINK-36180          
1 67114U 25299N   26176.76851385  .00022240  00000+0  81452-3 0  9993
2 67114  42.9976 278.7761 0001515 260.9627  99.1053 15.27609620 29646
STARLINK-35892          
1 67115U 25299P   26176.67357815  .00018999  00000+0  69746-3 0  9991
2 67115  43.0044 278.9278 0001630 265.8215  94.2450 15.27613479 29638
STARLINK-35738          
1 67116U 25299Q   26176.66329926  .00030592  00000+0  11143-2 0  9993
2 67116  43.0011 278.8500 0000856 274.4734  85.6020 15.27647990 29633
STARLINK-35674          
1 67117U 25299R   26176.68899588  .00019713  00000+0  72321-3 0  9990
2 67117  43.0006 279.0428 0001880 275.8938  84.1699 15.27613414 29639
STARLINK-35701          
1 67118U 25299S   26176.67485983  .00021628  00000+0  79228-3 0  9991
2 67118  43.0046 278.9331 0001541 267.7916  92.2760 15.27616160 29635
STARLINK-36179          
1 67119U 25299T   26176.61975522  .00019982  00000+0  73304-3 0  9998
2 67119  43.0020 279.3790 0001754 266.5641  93.5010 15.27609139 29629
STARLINK-36217          
1 67120U 25299U   26176.71469372  .00011791  00000+0  43705-3 0  9994
2 67120  42.9995 279.2337 0001394 271.8623  88.2069 15.27600048 29631
STARLINK-36124          
1 67121U 25299V   26176.70055913  .00016389  00000+0  60335-3 0  9992
2 67121  42.9998 279.1256 0001525 265.8889  94.1789 15.27602963 29630
STARLINK-36188          
1 67122U 25299W   26176.64288233  .00030621  00000+0  11155-2 0  9999
2 67122  43.0020 279.5579 0002074 268.5945  91.4669 15.27641282 29627
STARLINK-36151          
1 67123U 25299X   26176.74281281  .00012014  00000+0  44513-3 0  9998
2 67123  43.0025 278.5854 0002331 257.1079 102.9512 15.27597661 29644
STARLINK-36195          
1 67124U 25299Y   26176.65558663  .00018935  00000+0  69496-3 0  9995
2 67124  43.0034 278.7903 0001618 279.0337  81.0331 15.27622109 29630
STARLINK-36219          
1 67125U 25299Z   26176.69027979  .00024065  00000+0  88017-3 0  9992
2 67125  43.0015 279.0456 0001744 266.2906  93.7746 15.27617292 29634
STARLINK-36223          
1 67126U 25299AA  26176.68257029  .00010258  00000+0  38159-3 0  9994
2 67126  43.0025 278.9871 0001560 269.6513  90.4160 15.27597071 29638
STARLINK-36164          
1 67127U 25299AB  26176.66843517  .00019918  00000+0  73053-3 0  9990
2 67127  43.0036 278.8844 0001353 268.8905  91.1792 15.27618464 29635
STARLINK-35685          
1 67128U 25299AC  26176.67100509  .00020037  00000+0  73466-3 0  9991
2 67128  43.0040 278.9090 0001840 273.6317  86.4325 15.27624847 29638
STARLINK-36214          
1 67129U 25299AD  26176.71726852  .00020342  00000+0  74580-3 0  9999
2 67129  42.9986 279.2523 0001291 277.5821  82.4884 15.27619743 29639
STARLINK-36194          
1 67130U 25299AE  26176.68642912  .00016000  00000+0  58938-3 0  9996
2 67130  43.0018 279.0197 0001687 281.8405  78.2257 15.27597137 29638
ZIYUAN 3-04 (ZY 3-04)   
1 67131U 25300A   26177.17485309  .00004736  00000+0  21568-3 0  9992
2 67131  97.4736 255.0115 0005279 290.0900  69.9767 15.21159687 29200
KUIPER-00144            
1 67133U 25301A   26176.75129029  .00001373  00000+0  20908-3 0  9993
2 67133  51.9002 297.7681 0000693 106.0746 254.0292 14.79930465 29879
KUIPER-00164            
1 67134U 25301B   26176.75206802  .00002319  00000+0  35955-3 0  9998
2 67134  51.9036 309.7178 0000739 235.8935 124.1956 14.76597607 29883
KUIPER-00175            
1 67135U 25301C   26176.53699398  .00004866  00000+0  49503-3 0  9994
2 67135  51.8937 294.5142 0000905  73.4798 286.6269 14.92307010 29979
KUIPER-00179            
1 67136U 25301D   26176.74050455  .00001180  00000+0  18379-3 0  9996
2 67136  51.8989 307.7910 0000605 117.1789 242.9235 14.79931550 29919
KUIPER-00181            
1 67137U 25301E   26176.79433946  .00014766  00000+0  19612-2 0  9996
2 67137  51.8993 320.0833 0000707  63.2214 296.8821 14.79942594 29722
KUIPER-00183            
1 67138U 25301F   26176.77227692  .00005602  00000+0  55986-3 0  9998
2 67138  51.8946 294.2120 0009768  64.7374 295.4605 14.92752285 30099
KUIPER-00184            
1 67139U 25301G   26176.77967074  .00001186  00000+0  18457-3 0  9999
2 67139  51.8995 302.6205 0000353 117.3022 242.7976 14.79935255 30088
